start=new Date('2023-04-08T00:00:00.000Z').valueOf();
sats=[{"TLE_LINE1":"1 46336U 20062M   23097.30024544  .00011392  00000-0  78226-3 0  9999","ELEMENT_SET_NO":"999","EPHEMERIS_TYPE":"0","REV_AT_EPOCH":"14370","MEAN_MOTION":"15.06407854","REF_FRAME":"TEME","PERIOD":"95.592","OBJECT_TYPE":"PAYLOAD","TIME_SYSTEM":"UTC","ARG_OF_PERICENTER":"83.9888","TLE_LINE2":"2 46336  53.0526 108.3126 0001373  83.9888 276.1257 15.06407854143709","BSTAR":"0.00078226000000","OBJECT_NAME":"STARLINK-1738","MEAN_ELEMENT_THEORY":"SGP4","RA_OF_ASC_NODE":"108.3126","CLASSIFICATION_TYPE":"U","LAUNCH_DATE":"2020-09-03","COUNTRY_CODE":"US","OBJECT_ID":"2020-062M","SEMIMAJOR_AXIS":"6925.324","DECAY_DATE":null,"SITE":"AFETR","ECCENTRICITY":"0.00013730","RCS_SIZE":"LARGE","GP_ID":"229680330","CENTER_NAME":"EARTH","INCLINATION":"53.0526","PERIAPSIS":"546.239","MEAN_ANOMALY":"276.1257","NORAD_CAT_ID":"46336","EPOCH":"2023-04-07T07:12:21.206016","MEAN_MOTION_DOT":"0.00011392","FILE":"3882626","APOAPSIS":"548.140","MEAN_MOTION_DDOT":"0.0000000000000"},{"CLASSIFICATION_TYPE":"U","RA_OF_ASC_NODE":"107.6472","OBJECT_NAME":"STARLINK-1750","MEAN_ELEMENT_THEORY":"SGP4","SITE":"AFETR","DECAY_DATE":null,"ECCENTRICITY":"0.00016710","RCS_SIZE":"LARGE","COUNTRY_CODE":"US","LAUNCH_DATE":"2020-09-03","SEMIMAJOR_AXIS":"6925.349","OBJECT_ID":"2020-062N","PERIAPSIS":"546.057","MEAN_ANOMALY":"251.5187","INCLINATION":"53.0530","CENTER_NAME":"EARTH","GP_ID":"229680580","FILE":"3882626","MEAN_MOTION_DOT":"0.00008430","MEAN_MOTION_DDOT":"0.0000000000000","APOAPSIS":"548.371","NORAD_CAT_ID":"46337","EPOCH":"2023-04-07T10:44:40.215552","PERIOD":"95.592","MEAN_MOTION":"15.06399860","REF_FRAME":"TEME","REV_AT_EPOCH":"14373","TLE_LINE1":"1 46337U 20062N   23097.44768768  .00008430  00000-0  58415-3 0  9995","EPHEMERIS_TYPE":"0","ELEMENT_SET_NO":"999","TIME_SYSTEM":"UTC","OBJECT_TYPE":"PAYLOAD","TLE_LINE2":"2 46337  53.0530 107.6472 0001671 108.5983 251.5187 15.06399860143731","ARG_OF_PERICENTER":"108.5983","BSTAR":"0.00058415000000"},{"TLE_LINE2":"2 46338  53.0522 128.0228 0001467  74.4604 285.6547 15.06415428143437","ARG_OF_PERICENTER":"74.4604","BSTAR":"0.00126500000000","REV_AT_EPOCH":"14343","EPHEMERIS_TYPE":"0","TLE_LINE1":"1 46338U 20062P   23097.36475544  .00018619  00000-0  12650-2 0  9994","ELEMENT_SET_NO":"999","PERIOD":"95.591","REF_FRAME":"TEME","MEAN_MOTION":"15.06415428","OBJECT_TYPE":"PAYLOAD","TIME_SYSTEM":"UTC","CENTER_NAME":"EARTH","GP_ID":"229680830","PERIAPSIS":"546.150","MEAN_ANOMALY":"285.6547","INCLINATION":"53.0522","NORAD_CAT_ID":"46338","EPOCH":"2023-04-07T08:45:14.870016","FILE":"3882626","MEAN_MOTION_DOT":"0.00018619","MEAN_MOTION_DDOT":"0.0000000000000","APOAPSIS":"548.182","OBJECT_NAME":"STARLINK-1752","MEAN_ELEMENT_THEORY":"SGP4","CLASSIFICATION_TYPE":"U","RA_OF_ASC_NODE":"128.0228","COUNTRY_CODE":"US","LAUNCH_DATE":"2020-09-03","SEMIMAJOR_AXIS":"6925.301","OBJECT_ID":"2020-062P","ECCENTRICITY":"0.00014670","DECAY_DATE":null,"SITE":"AFETR","RCS_SIZE":"LARGE"},{"OBJECT_ID":"2020-062R","SEMIMAJOR_AXIS":"6925.305","LAUNCH_DATE":"2020-09-03","COUNTRY_CODE":"US","RCS_SIZE":"LARGE","DECAY_DATE":null,"SITE":"AFETR","ECCENTRICITY":"0.00015160","MEAN_ELEMENT_THEORY":"SGP4","OBJECT_NAME":"STARLINK-1759","RA_OF_ASC_NODE":"126.0647","CLASSIFICATION_TYPE":"U","EPOCH":"2023-04-07T19:16:52.089888","NORAD_CAT_ID":"46340","APOAPSIS":"548.219","MEAN_MOTION_DDOT":"0.0000000000000","MEAN_MOTION_DOT":"0.00006138","FILE":"3882691","CENTER_NAME":"EARTH","GP_ID":"229689638","MEAN_ANOMALY":"277.8902","PERIAPSIS":"546.120","INCLINATION":"53.0518","OBJECT_TYPE":"PAYLOAD","TIME_SYSTEM":"UTC","TLE_LINE1":"1 46340U 20062R   23097.80338067  .00006138  00000-0  43043-3 0  9998","EPHEMERIS_TYPE":"0","ELEMENT_SET_NO":"999","REV_AT_EPOCH":"14368","MEAN_MOTION":"15.06414349","REF_FRAME":"TEME","PERIOD":"95.591","BSTAR":"0.00043043000000","ARG_OF_PERICENTER":"82.2259","TLE_LINE2":"2 46340  53.0518 126.0647 0001516  82.2259 277.8902 15.06414349143682"},{"PERIOD":"95.592","REF_FRAME":"TEME","MEAN_MOTION":"15.06398942","REV_AT_EPOCH":"14396","TLE_LINE1":"1 46341U 20062S   23097.74256334  .00005807  00000-0  40841-3 0  9993","EPHEMERIS_TYPE":"0","ELEMENT_SET_NO":"999","TIME_SYSTEM":"UTC","OBJECT_TYPE":"PAYLOAD","TLE_LINE2":"2 46341  53.0513 106.3268 0001789  84.8701 275.2492 15.06398942143967","ARG_OF_PERICENTER":"84.8701","BSTAR":"0.00040841000000","CLASSIFICATION_TYPE":"U","RA_OF_ASC_NODE":"106.3268","OBJECT_NAME":"STARLINK-1760","MEAN_ELEMENT_THEORY":"SGP4","ECCENTRICITY":"0.00017890","DECAY_DATE":null,"SITE":"AFETR","RCS_SIZE":"LARGE","COUNTRY_CODE":"US","LAUNCH_DATE":"2020-09-03","SEMIMAJOR_AXIS":"6925.352","OBJECT_ID":"2020-062S","PERIAPSIS":"545.978","INCLINATION":"53.0513","MEAN_ANOMALY":"275.2492","CENTER_NAME":"EARTH","GP_ID":"229689640","FILE":"3882691","MEAN_MOTION_DOT":"0.00005807","MEAN_MOTION_DDOT":"0.0000000000000","APOAPSIS":"548.456","NORAD_CAT_ID":"46341","EPOCH":"2023-04-07T17:49:17.472576"},{"TIME_SYSTEM":"UTC","OBJECT_TYPE":"PAYLOAD","PERIOD":"95.592","MEAN_MOTION":"15.06398020","REF_FRAME":"TEME","REV_AT_EPOCH":"14368","TLE_LINE1":"1 46342U 20062T   23097.78863174 -.00003838  00000-0 -23892-3 0  9995","ELEMENT_SET_NO":"999","EPHEMERIS_TYPE":"0","BSTAR":"-0.00023892000000","TLE_LINE2":"2 46342  53.0533 126.1198 0001358  83.6460 276.4683 15.06398020143684","ARG_OF_PERICENTER":"83.6460","RCS_SIZE":"LARGE","DECAY_DATE":null,"SITE":"AFETR","ECCENTRICITY":"0.00013580","SEMIMAJOR_AXIS":"6925.355","OBJECT_ID":"2020-062T","COUNTRY_CODE":"US","LAUNCH_DATE":"2020-09-03","CLASSIFICATION_TYPE":"U","RA_OF_ASC_NODE":"126.1198","MEAN_ELEMENT_THEORY":"SGP4","OBJECT_NAME":"STARLINK-1762","MEAN_MOTION_DDOT":"0.0000000000000","APOAPSIS":"548.160","FILE":"3882641","MEAN_MOTION_DOT":"-0.00003838","EPOCH":"2023-04-07T18:55:37.782336","NORAD_CAT_ID":"46342","PERIAPSIS":"546.279","INCLINATION":"53.0533","MEAN_ANOMALY":"276.4683","GP_ID":"229688045","CENTER_NAME":"EARTH"},{"TLE_LINE2":"2 46343  53.0535 106.4430 0001485  98.3732 261.7426 15.06395655143956","ARG_OF_PERICENTER":"98.3732","BSTAR":"0.00003053000000","OBJECT_TYPE":"PAYLOAD","TIME_SYSTEM":"UTC","REV_AT_EPOCH":"14395","TLE_LINE1":"1 46343U 20062U   23097.71675955  .00000173  00000-0  30530-4 0  9992","ELEMENT_SET_NO":"999","EPHEMERIS_TYPE":"0","PERIOD":"95.592","MEAN_MOTION":"15.06395655","REF_FRAME":"TEME","NORAD_CAT_ID":"46343","EPOCH":"2023-04-07T17:12:08.025120","FILE":"3882723","MEAN_MOTION_DOT":"0.00000173","MEAN_MOTION_DDOT":"0.0000000000000","APOAPSIS":"548.255","CENTER_NAME":"EARTH","GP_ID":"229689150","INCLINATION":"53.0535","PERIAPSIS":"546.198","MEAN_ANOMALY":"261.7426","COUNTRY_CODE":"US","LAUNCH_DATE":"2020-09-03","SEMIMAJOR_AXIS":"6925.362","OBJECT_ID":"2020-062U","DECAY_DATE":null,"ECCENTRICITY":"0.00014850","SITE":"AFETR","RCS_SIZE":"LARGE","OBJECT_NAME":"STARLINK-1764","MEAN_ELEMENT_THEORY":"SGP4","CLASSIFICATION_TYPE":"U","RA_OF_ASC_NODE":"106.4430"},{"CLASSIFICATION_TYPE":"U","RA_OF_ASC_NODE":"107.8511","OBJECT_NAME":"STARLINK-1765","MEAN_ELEMENT_THEORY":"SGP4","ECCENTRICITY":"0.00015750","DECAY_DATE":null,"SITE":"AFETR","RCS_SIZE":"LARGE","COUNTRY_CODE":"US","LAUNCH_DATE":"2020-09-03","SEMIMAJOR_AXIS":"6925.396","OBJECT_ID":"2020-062V","PERIAPSIS":"546.170","INCLINATION":"53.0522","MEAN_ANOMALY":"257.0872","GP_ID":"229681076","CENTER_NAME":"EARTH","FILE":"3882626","MEAN_MOTION_DOT":"0.00011237","MEAN_MOTION_DDOT":"0.0000000000000","APOAPSIS":"548.352","NORAD_CAT_ID":"46344","EPOCH":"2023-04-07T09:41:00.508704","PERIOD":"95.593","REF_FRAME":"TEME","MEAN_MOTION":"15.06384549","REV_AT_EPOCH":"14372","ELEMENT_SET_NO":"999","TLE_LINE1":"1 46344U 20062V   23097.40347811  .00011237  00000-0  77241-3 0  9998","EPHEMERIS_TYPE":"0","TIME_SYSTEM":"UTC","OBJECT_TYPE":"PAYLOAD","TLE_LINE2":"2 46344  53.0522 107.8511 0001575 103.0292 257.0872 15.06384549143721","ARG_OF_PERICENTER":"103.0292","BSTAR":"0.00077241000000"},{"MEAN_MOTION_DOT":"0.00005759","FILE":"3882692","APOAPSIS":"548.276","MEAN_MOTION_DDOT":"0.0000000000000","NORAD_CAT_ID":"46345","EPOCH":"2023-04-07T19:15:30.613824","MEAN_ANOMALY":"265.9696","PERIAPSIS":"546.071","INCLINATION":"53.0519","CENTER_NAME":"EARTH","GP_ID":"229689658","DECAY_DATE":null,"ECCENTRICITY":"0.00015920","SITE":"AFETR","RCS_SIZE":"LARGE","LAUNCH_DATE":"2020-09-03","COUNTRY_CODE":"US","OBJECT_ID":"2020-062W","SEMIMAJOR_AXIS":"6925.308","RA_OF_ASC_NODE":"126.0472","CLASSIFICATION_TYPE":"U","OBJECT_NAME":"STARLINK-1767","MEAN_ELEMENT_THEORY":"SGP4","ARG_OF_PERICENTER":"94.1474","TLE_LINE2":"2 46345  53.0519 126.0472 0001592  94.1474 265.9696 15.06413126143689","BSTAR":"0.00040505000000","TIME_SYSTEM":"UTC","OBJECT_TYPE":"PAYLOAD","MEAN_MOTION":"15.06413126","REF_FRAME":"TEME","PERIOD":"95.591","TLE_LINE1":"1 46345U 20062W   23097.80243766  .00005759  00000-0  40505-3 0  9992","EPHEMERIS_TYPE":"0","ELEMENT_SET_NO":"999","REV_AT_EPOCH":"14368"},{"NORAD_CAT_ID":"46346","EPOCH":"2023-04-07T11:06:19.615392","FILE":"3882626","MEAN_MOTION_DOT":"0.00000770","MEAN_MOTION_DDOT":"0.0000000000000","APOAPSIS":"435.556","CENTER_NAME":"EARTH","GP_ID":"229680581","INCLINATION":"53.0558","PERIAPSIS":"433.872","MEAN_ANOMALY":"281.5827","COUNTRY_CODE":"US","LAUNCH_DATE":"2020-09-03","SEMIMAJOR_AXIS":"6812.849","OBJECT_ID":"2020-062X","SITE":"AFETR","DECAY_DATE":null,"ECCENTRICITY":"0.00012360","RCS_SIZE":"LARGE","OBJECT_NAME":"STARLINK-1546","MEAN_ELEMENT_THEORY":"SGP4","CLASSIFICATION_TYPE":"U","RA_OF_ASC_NODE":"268.5929","TLE_LINE2":"2 46346  53.0558 268.5929 0001236  78.5317 281.5827 15.43866184146555","ARG_OF_PERICENTER":"78.5317","BSTAR":"0.00002582000000","OBJECT_TYPE":"PAYLOAD","TIME_SYSTEM":"UTC","REV_AT_EPOCH":"14655","EPHEMERIS_TYPE":"0","TLE_LINE1":"1 46346U 20062X   23097.46272703  .00000770  00000-0  25820-4 0  9990","ELEMENT_SET_NO":"999","PERIOD":"93.272","REF_FRAME":"TEME","MEAN_MOTION":"15.43866184"}];
